COSMOS 2433 (720)       
1 32275U 07052A   24233.50736072 -.00000058  00000+0  00000+0 0  9999
2 32275  65.9102 338.2452 0003871 218.2027 141.8008  2.13104028130919
COSMOS 2432 (719)       
1 32276U 07052B   24233.59684524 -.00000058  00000+0  00000+0 0  9993
2 32276  65.9251 338.3573 0008138 318.5025  56.1869  2.13103078130910
COSMOS 2434 (721)       
1 32393U 07065A   24233.28803819  .00000060  00000+0  00000+0 0  9995
2 32393  64.3217 214.4019 0000320 355.6938  88.3900  2.13101264129583
COSMOS 2436 (723)       
1 32395U 07065C   24234.17757553  .00000060  00000+0  00000+0 0  9999
2 32395  64.3301 214.4369 0016237 353.1465 188.5075  2.13100060129566
COSMOS 2456 (730)       
1 36111U 09070A   24233.21180615  .00000038  00000+0  00000+0 0  9995
2 36111  64.6405  93.7598 0002442 339.1773 200.2726  2.13099069114234
COSMOS 2457 (733)       
1 36112U 09070B   24233.50614587  .00000037  00000+0  00000+0 0  9997
2 36112  64.6251  93.6069 0005224 141.3836  37.4246  2.13101254114248
COSMOS 2460 (732)       
1 36402U 10007C   24234.34383601 -.00000059  00000+0  00000+0 0  9999
2 36402  65.7647 336.8718 0001508 178.1209 276.0518  2.13106168112652
COSMOS 2476 (744)       
1 37867U 11064A   24233.36445848  .00000038  00000+0  00000+0 0  9998
2 37867  64.9126  95.4133 0021590 233.2112 335.7026  2.13101588 99572
COSMOS 2477 (745)       
1 37868U 11064B   24234.50327045  .00000030  00000+0  00000+0 0  9996
2 37868  64.9195  95.4479 0018738 233.6932 307.3059  2.13103098 99586
COSMOS 2475 (743)       
1 37869U 11064C   24234.37042334  .00000031  00000+0  00000+0 0  9998
2 37869  64.9271  95.4678 0023343 250.5706 146.6371  2.13101907 99597
COSMOS 2485 (747)       
1 39155U 13019A   24234.44189835  .00000031  00000+0  00000+0 0  9996
2 39155  65.0700  95.9748 0022004 229.1181 130.7862  2.13101838 88119
COSMOS 2492 (754)       
1 39620U 14012A   24234.39710286 -.00000059  00000+0  00000+0 0  9992
2 39620  65.6459 336.4377 0011222 315.1389  44.8063  2.13103045 81078
COSMOS 2500 (755)       
1 40001U 14032A   24233.16784312 -.00000056  00000+0  00000+0 0  9991
2 40001  65.5836 336.2791 0008179 197.7281 162.2766  2.13105842 79261
COSMOS 2501 (702K)      
1 40315U 14075A   24234.36016000  .00000059  00000+0  00000+0 0  9993
2 40315  63.6229 213.4098 0020890 211.3024 148.5576  2.13101356 75686
COSMOS 2514 (751)       
1 41330U 16008A   24234.34290197 -.00000059  00000+0  00000+0 0  9999
2 41330  65.3773 335.7325 0012036 206.5959 153.3793  2.13102483 66456
COSMOS 2522 (752)       
1 42939U 17055A   24233.24439778  .00000060  00000+0  00000+0 0  9997
2 42939  64.0839 214.5761 0010134 241.7542 118.1326  2.13101868 53784
COSMOS 2527 (756)       
1 43508U 18053A   24233.20384747  .00000040  00000+0  00000+0 0  9998
2 43508  65.2292  96.1819 0007110 221.3433 138.7014  2.13102297 48080
COSMOS 2529 (757)       
1 43687U 18086A   24234.24097188  .00000060  00000+0  00000+0 0  9999
2 43687  64.2995 215.0721 0011553 259.8491 100.0072  2.13101938 45115
COSMOS 2534 (758)       
1 44299U 19030A   24234.29604785  .00000061  00000+0  00000+0 0  9992
2 44299  64.3727 215.0298 0013401 279.0823 257.2728  2.13101899 40748
COSMOS 2544 (759)       
1 44850U 19088A   24234.08645481  .00000035  00000+0  00000+0 0  9994
2 44850  65.2163  95.9881 0011651 252.3483 107.6210  2.13102056 36520
COSMOS 2545 (760)       
1 45358U 20018A   24234.28324698 -.00000060  00000+0  00000+0 0  9998
2 45358  64.7168 335.6923 0010160 236.0307 123.9097  2.13102403 34496
COSMOS 2547 (705K)      
1 46805U 20075A   24232.12376726  .00000067  00000+0  00000+0 0  9995
2 46805  64.6017 214.7634 0008841 241.9494 117.9566  2.13102842 29694
COSMOS 2557 (706K)      
1 52984U 22075A   24233.22780224 -.00000059  00000+0  00000+0 0  9998
2 52984  64.6457 337.8532 0011812 274.0949  85.8012  2.13102191 16518
COSMOS 2559 (707K)      
1 54031U 22130A   24233.17089942 -.00000059  00000+0  00000+0 0  9998
2 54031  64.6177 337.9705 0007332 216.9980 142.9822  2.13101462 14496
COSMOS 2564 (761)       
1 54377U 22161A   24233.36149543  .00000061  00000+0  00000+0 0  9992
2 54377  64.7431 214.8382 0011342 225.2961 134.6011  2.13102042 13442
COSMOS 2569 (703K)      
1 57517U 23114A   24234.31703219  .00000032  00000+0  00000+0 0  9990
2 57517  64.9443  95.1060 0009268 296.9340  63.0669  2.13103802  8093
